NAVSTAR 77 (USA 289)    
1 43873U 18109A   24037.41026258 -.00000010  00000+0  00000+0 0  9998
2 43873  55.2457 126.2367 0028785 193.4295 128.5528  2.00573573 37738
